STARLINK-36571          
1 67579U 26016U   26030.75002315 -.01455153  69154-3 -22260-2 0  9991
2 67579  97.2818  89.1035 0001224  72.3112 293.0837 16.04497134  1958
STARLINK-36612          
1 67580U 26016V   26030.75002315 -.01470554  70654-3 -22290-2 0  9995
2 67580  97.2817  89.1038 0001155  69.1104 297.6412 16.04652611  1952
STARLINK-36632          
1 67581U 26016W   26030.75002315 -.01433817  67732-3 -21214-2 0  9995
2 67581  97.2819  89.1057 0001347  62.3345 307.9683 16.05048273  1950
STARLINK-36609          
1 67582U 26016X   26030.75002315 -.01430766  67575-3 -20998-2 0  9999
2 67582  97.2817  89.1060 0001230  68.2438 303.3749 16.05182479  1952
STARLINK-36577          
1 67583U 26016Y   26030.75002315 -.01438252  67939-3 -21568-2 0  9996
2 67583  97.2815  89.1045 0001238  70.3680 298.0807 16.04826105  1950
STARLINK-36419          
1 67584U 26016Z   26030.75002315 -.01413665  66197-3 -20567-2 0  9991
2 67584  97.2818  89.1066 0001191  67.3294 305.7128 16.05324615  1954
STARLINK-36560          
1 67585U 26016AA  26030.75002315 -.01399130  65104-3 -20097-2 0  9997
2 67585  97.2817  89.1075 0001167  73.9835 300.8972 16.05533266  1891
CZ-2C DEB               
1 67586U 26009C   26031.84739837  .00053569  00000+0  27329-2 0  9992
2 67586  97.2287 105.7516 0112883 164.3829 196.0932 15.11075454  2511
CZ-2C DEB               
1 67587U 26009D   26031.82687624  .00038101  00000+0  18740-2 0  9999
2 67587  97.6748 106.6208 0109193 169.8460 190.5013 15.12733602  2513
NAVSTAR 85 (USA 581)    
1 67588U 26017A   26028.76206649  .00000346  00000+0  32093-3 0  9990
2 67588  55.0007  99.1396 5940837 270.1415  26.1406  4.03376750    44
NEONSAT-1A              
1 67614U 26019A   26031.81098204  .00005250  00000+0  34930-3 0  9999
2 67614  97.4094 156.7214 0012034 304.1013  55.9073 15.07501157   266
ELECTRON R/B            
1 67615U 26019B   26031.74548725  .00250226  22837-5  25521-3 0  9999
2 67615  97.4470 156.8497 0259152 220.4311 137.7440 15.69235212   265
